NORAD_CAT_ID,OBJECT_NAME,OBJECT_TYPE,EPOCH,MEAN_MOTION,ECCENTRICITY,INCLINATION,RA_OF_ASC_NODE,ARG_OF_PERICENTER,MEAN_ANOMALY,BSTAR,MEAN_MOTION_DOT,MEAN_MOTION_DDOT,TLE_LINE0,TLE_LINE1,TLE_LINE2,SEMIMAJOR_AXIS,PERIOD,APOGEE,PERIGEE,DECAYED
51778.0,STARLINK-3615,PAYLOAD,2024-06-24 05:08:40,15.08845043,0.0001322,53.218,247.8853,97.6168,262.4974,8.9317e-05,1.134e-05,0.0,0 STARLINK-3615,1 51778U 22017L   24176.21435422  .00001134  00000-0  89317-4 0  9994,2 51778  53.2180 247.8853 0001322  97.6168 262.4974 15.08845043130085,6917.865,95.437,540.645,538.815,0.0
51778.0,STARLINK-3615,PAYLOAD,2024-06-24 11:30:13,15.08840385,0.0001352,53.2179,246.6943,105.781,254.3331,3.0615e-05,1.99e-06,0.0,0 STARLINK-3615,1 51778U 22017L   24176.47931783  .00000199  00000-0  30615-4 0  9990,2 51778  53.2179 246.6943 0001352 105.7810 254.3331 15.08840385128479,6917.879,95.438,540.68,538.809,0.0
51778.0,STARLINK-3615,PAYLOAD,2024-06-25 11:21:00,15.08835801,0.0001319,53.2176,242.2327,100.8881,259.226,-3.0397e-05,-7.72e-06,0.0,0 STARLINK-3615,1 51778U 22017L   24177.47292386 -.00000772  00000-0 -30397-4 0  9996,2 51778  53.2176 242.2327 0001319 100.8881 259.2260 15.08835801130274,6917.893,95.438,540.671,538.846,0.0
51778.0,STARLINK-3615,PAYLOAD,2024-06-26 11:11:47,15.08841743,0.0001402,53.2172,237.7728,92.4993,267.616,0.00010699,1.415e-05,0.0,0 STARLINK-3615,1 51778U 22017L   24178.46651746  .00001415  00000-0  10699-3 0  9990,2 51778  53.2172 237.7728 0001402  92.4993 267.6160 15.08841743130428,6917.875,95.437,540.71,538.77,0.0
51778.0,STARLINK-3615,PAYLOAD,2024-06-27 11:02:34,15.08834216,0.0001357,53.2166,233.3139,91.0135,269.1013,6.0788e-05,6.8e-06,0.0,0 STARLINK-3615,1 51778U 22017L   24179.46012598  .00000680  00000-0  60788-4 0  9995,2 51778  53.2166 233.3139 0001357  91.0135 269.1013 15.08834216130578,6917.898,95.438,540.702,538.824,0.0
51778.0,STARLINK-3615,PAYLOAD,2024-06-28 10:53:21,15.08841669,0.0001414,53.2164,228.8504,89.7106,270.4048,1.9393e-05,2.1e-07,0.0,0 STARLINK-3615,1 51778U 22017L   24180.45372460  .00000021  00000-0  19393-4 0  9998,2 51778  53.2164 228.8504 0001414  89.7106 270.4048 15.08841669129073,6917.875,95.437,540.718,538.762,0.0
51778.0,STARLINK-3615,PAYLOAD,2024-06-29 12:19:32,15.08835372,0.0001251,53.2159,224.0955,94.4721,265.6414,5.1271e-05,5.28e-06,0.0,0 STARLINK-3615,1 51778U 22017L   24181.51356892  .00000528  00000-0  51271-4 0  9990,2 51778  53.2159 224.0955 0001251  94.4721 265.6414 15.08835372130888,6917.895,95.438,540.625,538.894,0.0
51778.0,STARLINK-3615,PAYLOAD,2024-06-29 20:16:27,15.08837194,0.0001236,53.216,222.6084,93.9467,266.1667,6.6966e-05,7.78e-06,0.0,0 STARLINK-3615,1 51778U 22017L   24181.84476809  .00000778  00000-0  66966-4 0  9991,2 51778  53.2160 222.6084 0001236  93.9467 266.1667 15.08837194129283,6917.889,95.438,540.609,538.899,0.0
51778.0,STARLINK-3615,PAYLOAD,2024-06-30 08:59:33,15.08839616,0.0001274,53.2162,220.2301,87.7751,272.3387,3.6922e-05,3e-06,0.0,0 STARLINK-3615,1 51778U 22017L   24182.37468838  .00000300  00000-0  36922-4 0  9993,2 51778  53.2162 220.2301 0001274  87.7751 272.3387 15.08839616129368,6917.882,95.438,540.628,538.865,0.0
51778.0,STARLINK-3615,PAYLOAD,2024-06-30 20:07:14,15.08844469,0.000135,53.2165,218.1489,86.005,274.1097,7.9389e-05,9.76e-06,0.0,0 STARLINK-3615,1 51778U 22017L   24182.83836356  .00000976  00000-0  79389-4 0  9991,2 51778  53.2165 218.1489 0001350  86.0050 274.1097 15.08844469131085,6917.867,95.437,540.666,538.798,0.0
51778.0,STARLINK-3615,PAYLOAD,2024-07-01 05:39:33,15.08837343,0.0001414,53.2167,216.3646,88.2561,271.8593,7.1513e-05,8.5e-06,0.0,0 STARLINK-3615,1 51778U 22017L   24183.23580818  .00000850  00000-0  71513-4 0  9997,2 51778  53.2167 216.3646 0001414  88.2561 271.8593 15.08837343131149,6917.889,95.438,540.732,538.775,0.0
51778.0,STARLINK-3615,PAYLOAD,2024-07-01 12:01:06,15.08839298,0.0001433,53.2161,215.1761,81.6367,278.4787,7.8137e-05,9.56e-06,0.0,0 STARLINK-3615,1 51778U 22017L   24183.50076734  .00000956  00000-0  78137-4 0  9990,2 51778  53.2161 215.1761 0001433  81.6367 278.4787 15.08839298129539,6917.883,95.438,540.739,538.756,0.0
51778.0,STARLINK-3615,PAYLOAD,2024-07-02 08:41:07,15.08825346,0.0001468,53.2157,211.3098,84.8422,275.2738,0.00013464,1.855e-05,0.0,0 STARLINK-3615,1 51778U 22017L   24184.36189651  .00001855  00000-0  13464-3 0  9998,2 51778  53.2157 211.3098 0001468  84.8422 275.2738 15.08825346131319,6917.925,95.438,540.806,538.775,0.0
51778.0,STARLINK-3615,PAYLOAD,2024-07-02 18:13:26,15.08838899,0.0001407,53.2163,209.5261,82.7149,277.4003,-7.4103e-06,-4.06e-06,0.0,0 STARLINK-3615,1 51778U 22017L   24184.75933102 -.00000406  00000-0 -74103-5 0  9991,2 51778  53.2163 209.5261 0001407  82.7149 277.4003 15.08838899131375,6917.884,95.438,540.722,538.775,0.0
51778.0,STARLINK-3615,PAYLOAD,2024-07-03 18:04:12,15.08842362,0.0001404,53.2165,205.0645,77.8643,282.2507,5.4023e-05,5.72e-06,0.0,0 STARLINK-3615,1 51778U 22017L   24185.75292682  .00000572  00000-0  54023-4 0  9993,2 51778  53.2165 205.0645 0001404  77.8643 282.2507 15.08842362129870,6917.873,95.437,540.709,538.767,0.0
51778.0,STARLINK-3615,PAYLOAD,2024-07-04 05:11:55,15.08832518,0.0001438,53.2172,202.9842,82.2104,277.9051,4.2183e-05,3.83e-06,0.0,0 STARLINK-3615,1 51778U 22017L   24186.21661404  .00000383  00000-0  42183-4 0  9991,2 51778  53.2172 202.9842 0001438  82.2104 277.9051 15.08832518131591,6917.903,95.438,540.763,538.773,0.0
51778.0,STARLINK-3615,PAYLOAD,2024-07-04 08:22:41,15.08833432,0.0001435,53.2172,202.3896,82.3865,277.729,4.7856e-05,4.74e-06,0.0,0 STARLINK-3615,1 51778U 22017L   24186.34909379  .00000474  00000-0  47856-4 0  9994,2 51778  53.2172 202.3896 0001435  82.3865 277.7290 15.08833432129963,6917.9,95.438,540.758,538.773,0.0
51778.0,STARLINK-3615,PAYLOAD,2024-07-04 17:55:00,15.08837184,0.0001439,53.2174,200.6055,82.0021,278.1135,4.6124e-05,4.46e-06,0.0,0 STARLINK-3615,1 51778U 22017L   24186.74653227  .00000446  00000-0  46124-4 0  9992,2 51778  53.2174 200.6055 0001439  82.0021 278.1135 15.08837184130028,6917.889,95.438,540.749,538.759,0.0
51778.0,STARLINK-3615,PAYLOAD,2024-07-05 09:48:51,15.08840718,0.000144,53.2173,197.6319,84.3268,275.7888,3.0139e-05,1.92e-06,0.0,0 STARLINK-3615,1 51778U 22017L   24187.40893093  .00000192  00000-0  30139-4 0  9990,2 51778  53.2173 197.6319 0001440  84.3268 275.7888 15.08840718131773,6917.878,95.438,540.739,538.747,0.0
51778.0,STARLINK-3615,PAYLOAD,2024-07-05 17:45:47,15.08842747,0.0001439,53.2173,196.145,83.6265,276.4891,2.3251e-05,8.2e-07,0.0,0 STARLINK-3615,1 51778U 22017L   24187.74012953  .00000082  00000-0  23251-4 0  9990,2 51778  53.2173 196.1450 0001439  83.6265 276.4891 15.08842747130179,6917.872,95.437,540.732,538.742,0.0
51778.0,STARLINK-3615,PAYLOAD,2024-07-06 08:04:15,15.08837581,0.000141,53.2168,193.4684,83.2568,276.8584,3.9689e-05,3.44e-06,0.0,0 STARLINK-3615,1 51778U 22017L   24188.33629251  .00000344  00000-0  39689-4 0  9994,2 51778  53.2168 193.4684 0001410  83.2568 276.8584 15.08837581130266,6917.888,95.438,540.728,538.777,0.0
51778.0,STARLINK-3615,PAYLOAD,2024-07-06 17:36:34,15.08841041,0.0001419,53.2169,191.6845,83.6351,276.4803,4.4161e-05,4.15e-06,0.0,0 STARLINK-3615,1 51778U 22017L   24188.73372970  .00000415  00000-0  44161-4 0  9991,2 51778  53.2169 191.6845 0001419  83.6351 276.4803 15.08841041131974,6917.877,95.437,540.724,538.761,0.0
51778.0,STARLINK-3615,PAYLOAD,2024-07-07 06:19:39,15.0884014,0.0001383,53.2167,189.3054,86.3028,273.8122,3.065e-05,2e-06,0.0,0 STARLINK-3615,1 51778U 22017L   24189.26365049  .00000200  00000-0  30650-4 0  9999,2 51778  53.2167 189.3054 0001383  86.3028 273.8122 15.08840140130400,6917.88,95.438,540.702,538.788,0.0
51778.0,STARLINK-3615,PAYLOAD,2024-07-08 04:35:03,15.08839462,0.0001371,53.2165,185.1423,86.8543,273.2606,4.5127e-05,4.3e-06,0.0,0 STARLINK-3615,1 51778U 22017L   24190.19100969  .00000430  00000-0  45127-4 0  9991,2 51778  53.2165 185.1423 0001371  86.8543 273.2606 15.08839462132190,6917.882,95.438,540.695,538.799,0.0
51778.0,STARLINK-3615,PAYLOAD,2024-07-08 06:10:26,15.08840937,0.0001347,53.2164,184.8441,90.41,269.7047,3.6257e-05,2.89e-06,0.0,0 STARLINK-3615,1 51778U 22017L   24190.25724878  .00000289  00000-0  36257-4 0  9995,2 51778  53.2164 184.8441 0001347  90.4100 269.7047 15.08840937130554,6917.878,95.437,540.674,538.811,0.0
51778.0,STARLINK-3615,PAYLOAD,2024-07-08 17:18:08,15.08842491,0.0001344,53.2164,182.7626,89.8749,270.2397,4.1262e-05,3.69e-06,0.0,0 STARLINK-3615,1 51778U 22017L   24190.72092709  .00000369  00000-0  41262-4 0  9999,2 51778  53.2164 182.7626 0001344  89.8749 270.2397 15.08842491130624,6917.873,95.437,540.668,538.808,0.0
51778.0,STARLINK-3615,PAYLOAD,2024-07-09 06:01:13,15.08838875,0.0001465,53.2173,180.3838,94.8257,265.2902,3.8748e-06,-2.26e-06,0.0,0 STARLINK-3615,1 51778U 22017L   24191.25085082 -.00000226  00000-0  38748-5 0  9993,2 51778  53.2173 180.3838 0001465  94.8257 265.2902 15.08838875132356,6917.884,95.438,540.762,538.735,0.0
51778.0,STARLINK-3615,PAYLOAD,2024-07-09 09:11:59,15.08838643,0.0001495,53.2174,179.7894,95.3787,264.7376,1.6718e-05,-2.2e-07,0.0,0 STARLINK-3615,1 51778U 22017L   24191.38333062 -.00000022  00000-0  16718-4 0  9997,2 51778  53.2174 179.7894 0001495  95.3787 264.7376 15.08838643130729,6917.885,95.438,540.784,538.715,0.0
51778.0,STARLINK-3615,PAYLOAD,2024-07-10 04:16:37,15.0883273,0.0001286,53.2171,176.219,106.0887,254.0246,-3.7168e-05,-8.79e-06,0.0,0 STARLINK-3615,1 51778U 22017L   24192.17821676 -.00000879  00000-0 -37168-4 0  9991,2 51778  53.2171 176.2190 0001286 106.0887 254.0246 15.08832730132491,6917.903,95.438,540.657,538.878,0.0
51778.0,STARLINK-3615,PAYLOAD,2024-07-10 09:02:49,15.08814355,0.0001459,53.2174,175.3284,92.824,267.2919,-0.00017939,-3.14e-05,0.0,0 STARLINK-3615,1 51778U 22017L   24192.37695621 -.00003140  00000-0 -17939-3 0  9999,2 51778  53.2174 175.3284 0001459  92.8240 267.2919 15.08814355132525,6917.959,95.439,540.833,538.814,0.0
